MALLIGYONG-1            
1 58400U 23179A   23355.14745667  .00007952  00000+0  35469-3 0  9999
2 58400  97.4262 239.5338 0015876 168.3888 191.7717 15.21553935  4490
